District,City,State,Zip,County
Jacksonville,Alachua,FL,32615,Alachua
Jacksonville,Gainesville,FL,32601,Alachua
Jacksonville,Gainesville,FL,32611,Alachua
Jacksonville,Gainesville,FL,32610,Alachua
Jacksonville,Gainesville,FL,32609,Alachua
Jacksonville,Gainesville,FL,32605,Alachua
Jacksonville,Gainesville,FL,32608,Alachua
Jacksonville,Gainesville,FL,32606,Alachua
Jacksonville,Gainesville,FL,32602,Alachua
Jacksonville,Gainesville,FL,32603,Alachua
Jacksonville,Gainesville,FL,32641,Alachua
Jacksonville,Gainesville,FL,32607,Alachua
Jacksonville,Gainesville,FL,32653,Alachua
Jacksonville,Gainesville,FL,32661,Alachua
Jacksonville,Gainesville,FL,32604,Alachua
Jacksonville,Gainesville,FL,32614,Alachua
Jacksonville,Gainesville,FL,32643,Alachua
Jacksonville,Gainesville,FL,32612,Alachua
Jacksonville,Gainsesville,FL,32607,Alachua
Jacksonville,High Springs,FL,32643,Alachua
Jacksonville,Macclenny,FL,32063,Baker
Jacksonville,Alys Beach,FL,32413,Bay
Jacksonville,Callaway,FL,32404,Bay
Jacksonville,Gulf Breeze,FL,32561,Bay
Jacksonville,Holmes Beach,FL,32417,Bay
Jacksonville,Inlet Beach,FL,32413,Bay
Jacksonville,Mexico Beach,FL,32456,Bay
Jacksonville,Mexico Beach,FL,32408,Bay
Jacksonville,Panama City,FL,32401,Bay
Jacksonville,Panama City,FL,32402,Bay
Jacksonville,Panama City,FL,32404,Bay
Jacksonville,Panama City,FL,32413,Bay
Jacksonville,Panama City,FL,32407,Bay
Jacksonville,Panama City,FL,32405,Bay
Jacksonville,Panama City,FL,32408,Bay
Jacksonville,Panama City,FL,32409,Bay
Jacksonville,Panama City,FL,32503,Bay
Jacksonville,Panama City,FL,32495,Bay
Jacksonville,Panama City,FL,32406,Bay
Jacksonville,Panama City Bch,FL,32407,Bay
Jacksonville,Panama City Bch,FL,32408,Bay
Jacksonville,Panama City Bch,FL,32413,Bay
Jacksonville,Panama City Beach,FL,32413,Bay
Jacksonville,Panama City Beach,FL,32408,Bay
Jacksonville,Panama City Beach,FL,32407,Bay
Jacksonville,Panama City Beach,FL,32513,Bay
Jacksonville,Panama City Beach,FL,32503,Bay
Jacksonville,Panama City Beach,FL,32459,Bay
Jacksonville,Panama City Beach,FL,32409,Bay
Jacksonville,Panama City Beach,FL,31413,Bay
Jacksonville,Seacrest Beach,FL,32413,Bay
Jacksonville,Starke,FL,32091,Bradford
Jacksonville,Fleming Island,FL,32003,Clay
Jacksonville,Green Cove Springs,FL,32043,Clay
Jacksonville,Keystone Heights,FL,32656,Clay
Jacksonville,Middleburg,FL,32068,Clay
Jacksonville,Middleburg,FL,32065,Clay
Jacksonville,Orange Park,FL,32073,Clay
Jacksonville,Orange Park,FL,32065,Clay
Jacksonville,Orange Park,FL,32003,Clay
Jacksonville,Orange Park,FL,32068,Clay
Jacksonville,Lake City,FL,32055,Columbia
Jacksonville,Lake City,FL,32024,Columbia
Jacksonville,Lake City,FL,32025,Columbia
Jacksonville,Jacksonville,FL,32257,Dade
Jacksonville,Atlantic Bch,FL,32233,Duval
Jacksonville,Atlantic Beach,FL,32233,Duval
Jacksonville,Bayard,FL,32245,Duval
Jacksonville,Jacksonville,FL,32202,Duval
Jacksonville,Jacksonville,FL,32206,Duval
Jacksonville,Jacksonville,FL,32205,Duval
Jacksonville,Jacksonville,FL,32207,Duval
Jacksonville,Jacksonville,FL,32204,Duval
Jacksonville,Jacksonville,FL,32209,Duval
Jacksonville,Jacksonville,FL,32218,Duval
Jacksonville,Jacksonville,FL,32211,Duval
Jacksonville,Jacksonville,FL,32233,Duval
Jacksonville,Jacksonville,FL,32226,Duval
Jacksonville,Jacksonville,FL,32210,Duval
Jacksonville,Jacksonville,FL,32254,Duval
Jacksonville,Jacksonville,FL,32225,Duval
Jacksonville,Jacksonville,FL,32208,Duval
Jacksonville,Jacksonville,FL,32201,Duval
Jacksonville,Jacksonville,FL,32216,Duval
Jacksonville,Jacksonville,FL,32250,Duval
Jacksonville,Jacksonville,FL,32259,Duval
Jacksonville,Jacksonville,FL,32231,Duval
Jacksonville,Jacksonville,FL,32217,Duval
Jacksonville,Jacksonville,FL,32224,Duval
Jacksonville,Jacksonville,FL,32220,Duval
Jacksonville,Jacksonville,FL,32256,Duval
Jacksonville,Jacksonville,FL,32203,Duval
Jacksonville,Jacksonville,FL,32257,Duval
Jacksonville,Jacksonville,FL,32277,Duval
Jacksonville,Jacksonville,FL,32221,Duval
Jacksonville,Jacksonville,FL,32223,Duval
Jacksonville,Jacksonville,FL,32219,Duval
Jacksonville,Jacksonville,FL,32258,Duval
Jacksonville,Jacksonville,FL,32244,Duval
Jacksonville,Jacksonville,FL,32247,Duval
Jacksonville,Jacksonville,FL,32246,Duval
Jacksonville,Jacksonville,FL,32229,Duval
Jacksonville,Jacksonville,FL,32222,Duval
Jacksonville,Jacksonville,FL,32212,Duval
Jacksonville,Jacksonville,FL,32245,Duval
Jacksonville,Jacksonville,FL,32227,Duval
Jacksonville,Jacksonville,FL,32248,Duval
Jacksonville,Jacksonville,FL,32556,Duval
Jacksonville,Jacksonville,FL,32255,Duval
Jacksonville,Jacksonville Bch,FL,32250,Duval
Jacksonville,Jacksonville Bch,FL,32256,Duval
Jacksonville,Jacksonville Beach,FL,32250,Duval
Jacksonville,Jacksonvlle,FL,32204,Duval
Jacksonville,Yulee,FL,32041,Duval
Jacksonville,Pensacola,FL,32501,Escambia
Jacksonville,Pensacola,FL,32505,Escambia
Jacksonville,Pensacola,FL,32502,Escambia
Jacksonville,Pensacola,FL,32514,Escambia
Jacksonville,Pensacola,FL,32507,Escambia
Jacksonville,Pensacola,FL,32504,Escambia
Jacksonville,Pensacola,FL,32503,Escambia
Jacksonville,Pensacola,FL,32526,Escambia
Jacksonville,Pensacola,FL,32506,Escambia
Jacksonville,Pensacola,FL,32523,Escambia
Jacksonville,Pensacola,FL,32534,Escambia
Jacksonville,Pensacola,FL,32561,Escambia
Jacksonville,Pensacola,FL,32508,Escambia
Jacksonville,Pensacola,FL,32513,Escambia
Jacksonville,Pensacola,FL,32533,Escambia
Jacksonville,Pensacola Bch,FL,32561,Escambia
Jacksonville,Pensacola Beach,FL,32561,Escambia
Jacksonville,Marineland,FL,32086,Flagler
Jacksonville,Carrabelle,FL,32322,Franklin
Jacksonville,East Point,FL,32328,Franklin
Jacksonville,St George Island,FL,32328,Franklin
Jacksonville,St. George Island,FL,32328,Franklin
Jacksonville,Quincy,FL,32351,Gadsden
Jacksonville,Trenton,FL,32693,Gilchrist
Jacksonville,Cape San Blas,FL,32456,Gulf
Jacksonville,Mexico Beach,FL,32456,Gulf
Jacksonville,Port Saint Joe,FL,32456,Gulf
Jacksonville,Port St Joe,FL,32456,Gulf
Jacksonville,White Springs,FL,32096,Hamilton
Jacksonville,Marianna,FL,32446,Jackson
Jacksonville,Marianna,FL,32448,Jackson
Jacksonville,Tallahassee,FL,32399,Leon
Jacksonville,Tallahassee,FL,32301,Leon
Jacksonville,Tallahassee,FL,32307,Leon
Jacksonville,Tallahassee,FL,32306,Leon
Jacksonville,Tallahassee,FL,32308,Leon
Jacksonville,Tallahassee,FL,32303,Leon
Jacksonville,Tallahassee,FL,32304,Leon
Jacksonville,Tallahassee,FL,32310,Leon
Jacksonville,Tallahassee,FL,32313,Leon
Jacksonville,Tallahassee,FL,32312,Leon
Jacksonville,Tallahassee,FL,32309,Leon
Jacksonville,Tallahassee,FL,32316,Leon
Jacksonville,Tallahassee,FL,32311,Leon
Jacksonville,Tallahassee,FL,32317,Leon
Jacksonville,Tallahassee,FL,32318,Leon
Jacksonville,Tallahassee,FL,32315,Leon
Jacksonville,Cedar Key,FL,32625,Levy
Jacksonville,Fanning Springs,FL,32693,Levy
Jacksonville,Madison,FL,32340,Madison
Jacksonville,Amelia Island,FL,32034,Nassau
Jacksonville,Callahan,FL,32011,Nassau
Jacksonville,Fernandia Beach,FL,32034,Nassau
Jacksonville,Fernandina Bch,FL,32034,Nassau
Jacksonville,Fernandina Beach,FL,32034,Nassau
Jacksonville,Fernandina Beach,FL,32089,Nassau
Jacksonville,Yulee,FL,32097,Nassau
Jacksonville,Crestview,FL,32536,Okaloosa
Jacksonville,Crestview,FL,32539,Okaloosa
Jacksonville,Destin,FL,32541,Okaloosa
Jacksonville,Destin,FL,32550,Okaloosa
Jacksonville,Destin,FL,32540,Okaloosa
Jacksonville,Fort Walton Beach,FL,32548,Okaloosa
Jacksonville,Fort Walton Beach,FL,32547,Okaloosa
Jacksonville,Palatka,FL,32177,Putnam
Jacksonville,Palatka,FL,32178,Putnam
Jacksonville,Satsuma,FL,32189,Putnam
Jacksonville,Gulf Breeze,FL,32562,Santa Rosa
Jacksonville,Gulf Breeze,FL,32561,Santa Rosa
Jacksonville,Gulf Breeze,FL,32563,Santa Rosa
Jacksonville,Anastasia Island,FL,32080,St. Johns
Jacksonville,Crescent Bch,FL,32086,St. Johns
Jacksonville,Crescent Beach,FL,32086,St. Johns
Jacksonville,Fruit Cove,FL,32259,St. Johns
Jacksonville,Hastings,FL,32145,St. Johns
Jacksonville,Jacksonville,FL,32259,St. Johns
Jacksonville,N Ponte Vedra,FL,32082,St. Johns
Jacksonville,Ponte Vedra,FL,32082,St. Johns
Jacksonville,Ponte Vedra,FL,32081,St. Johns
Jacksonville,Ponte Vedra Bch,FL,32082,St. Johns
Jacksonville,Ponte Vedra Beach,FL,32082,St. Johns
Jacksonville,Ponte Vedra Beach,FL,32081,St. Johns
Jacksonville,Ponte Vedra Beach,FL,32092,St. Johns
Jacksonville,Ponte Verda Bch,FL,32082,St. Johns
Jacksonville,Ponte Verdra Bch,FL,32082,St. Johns
Jacksonville,Saint Augustine,FL,32084,St. Johns
Jacksonville,Saint Augustine,FL,32095,St. Johns
Jacksonville,Saint Augustine,FL,32080,St. Johns
Jacksonville,Saint Augustine,FL,32086,St. Johns
Jacksonville,Saint Augustine,FL,32092,St. Johns
Jacksonville,Saint Augustine,FL,32085,St. Johns
Jacksonville,Saint Augustine Beac,FL,32080,St. Johns
Jacksonville,Saint Augustine Beac,FL,32084,St. Johns
Jacksonville,Saint Johns,FL,32259,St. Johns
Jacksonville,St Augustine,FL,32084,St. Johns
Jacksonville,St Augustine,FL,32086,St. Johns
Jacksonville,St Augustine,FL,32080,St. Johns
Jacksonville,St Augustine,FL,32095,St. Johns
Jacksonville,St Augustine,FL,32092,St. Johns
Jacksonville,St Augustine Bch,FL,32080,St. Johns
Jacksonville,St Augustine Bch,FL,32086,St. Johns
Jacksonville,St Augustine Bch,FL,32084,St. Johns
Jacksonville,St Augustine Beach,FL,32084,St. Johns
Jacksonville,St Augustine Beach,FL,32080,St. Johns
Jacksonville,St. Augustine,FL,32080,St. Johns
Jacksonville,St. Johns,FL,32259,St. Johns
Jacksonville,St Augustine,FL,32084,St. Lucie
Jacksonville,Live Oak,FL,32064,Suwannee
Jacksonville,Live Oak,FL,32060,Suwannee
Jacksonville,Raiford,FL,32026,Union
Jacksonville,Raiford,FL,32083,Union
Jacksonville,Crawfordville,FL,32327,Wakulla
Jacksonville,Panacea,FL,32346,Wakulla
Jacksonville,St. Marks,FL,32355,Wakulla
Jacksonville,Alys Beach,FL,32413,Walton
Jacksonville,Destin,FL,32550,Walton
Jacksonville,Miramar,FL,32550,Walton
Jacksonville,Miramar Bch,FL,32550,Walton
Jacksonville,Miramar Beach,FL,32550,Walton
Jacksonville,Panama City,FL,32461,Walton
Jacksonville,Rosemary Beach,FL,32561,Walton
Jacksonville,Seacrest,FL,32413,Walton
Jacksonville,Seacrest Beach,FL,32413,Walton
Jacksonville,Seagrove Bch,FL,32413,Walton
Jacksonville,Watersound,FL,32413,Walton
Jacksonville,Miami,FL,32256,
