District,City,State,Zip,County
Tampa,Sarasota,FL,34243,Sarasota
Tampa,Mexico Beach,FL,34210,Bay
Tampa,Englewood,FL,34224,Charlotte
Tampa,Englewood,FL,34223,Charlotte
Tampa,Grove City,FL,34224,Charlotte
Tampa,Land O' Lakes,FL,33638,Charlotte
Tampa,Beverly Hills,FL,34465,Citrus
Tampa,Crystal River,FL,34428,Citrus
Tampa,Crystal River,FL,34429,Citrus
Tampa,Hernando,FL,34442,Citrus
Tampa,Homosassa,FL,34446,Citrus
Tampa,Homosassa,FL,34448,Citrus
Tampa,Inverness,FL,34452,Citrus
Tampa,Inverness,FL,34450,Citrus
Tampa,Inverness,FL,34453,Citrus
Tampa,Wauchula,FL,33873,Hardee
Tampa,Brooksville,FL,34601,Hernando
Tampa,Brooksville,FL,34614,Hernando
Tampa,Brooksville,FL,34613,Hernando
Tampa,Brooksville,FL,34604,Hernando
Tampa,Brooksville,FL,34602,Hernando
Tampa,Brooksville,FL,34609,Hernando
Tampa,Brooksville,FL,33601,Hernando
Tampa,Citrus Hills,FL,34442,Hernando
Tampa,Spring Hill,FL,34608,Hernando
Tampa,Spring Hill,FL,34613,Hernando
Tampa,Spring Hill,FL,34606,Hernando
Tampa,Spring Hill,FL,34609,Hernando
Tampa,Spring Hill,FL,34607,Hernando
Tampa,Springhill,FL,34608,Hernando
Tampa,Springhill,FL,33556,Hernando
Tampa,Avon Park,FL,33825,Highlands
Tampa,Lake Placid,FL,33852,Highlands
Tampa,Seabring,FL,33870,Highlands
Tampa,Sebring,FL,33870,Highlands
Tampa,Sebring,FL,33872,Highlands
Tampa,Sebring,FL,33876,Highlands
Tampa,Apollo Beach,FL,33572,Hillsborough
Tampa,Brandon,FL,33511,Hillsborough
Tampa,Brandon,FL,33510,Hillsborough
Tampa,Brandon,FL,33619,Hillsborough
Tampa,Brandon,FL,33531,Hillsborough
Tampa,Davis Island,FL,33606,Hillsborough
Tampa,Dover,FL,33527,Hillsborough
Tampa,Englewood,FL,34223,Hillsborough
Tampa,Gibsonton,FL,33534,Hillsborough
Tampa,Lithia,FL,33547,Hillsborough
Tampa,Lutz,FL,33558,Hillsborough
Tampa,Lutz,FL,33549,Hillsborough
Tampa,Lutz,FL,33559,Hillsborough
Tampa,Lutz,FL,33548,Hillsborough
Tampa,New Port Richey,FL,34655,Hillsborough
Tampa,Odessa,FL,33556,Hillsborough
Tampa,Oldsmar,FL,34677,Hillsborough
Tampa,Plant City,FL,33566,Hillsborough
Tampa,Plant City,FL,33564,Hillsborough
Tampa,Plant City,FL,33565,Hillsborough
Tampa,Plant City,FL,33567,Hillsborough
Tampa,Plant City,FL,33563,Hillsborough
Tampa,Riverview,FL,33569,Hillsborough
Tampa,Riverview,FL,33578,Hillsborough
Tampa,Riverview,FL,33579,Hillsborough
Tampa,Ruskin,FL,33570,Hillsborough
Tampa,Ruskin,FL,33573,Hillsborough
Tampa,Sarasota,FL,34232,Hillsborough
Tampa,Seffner,FL,33584,Hillsborough
Tampa,St Peteresburg,FL,33549,Hillsborough
Tampa,Sun City,FL,33573,Hillsborough
Tampa,Sun City Center,FL,33573,Hillsborough
Tampa,Tampa,FL,33605,Hillsborough
Tampa,Tampa,FL,33602,Hillsborough
Tampa,Tampa,FL,33607,Hillsborough
Tampa,Tampa,FL,33629,Hillsborough
Tampa,Tampa,FL,33606,Hillsborough
Tampa,Tampa,FL,33610,Hillsborough
Tampa,Tampa,FL,33612,Hillsborough
Tampa,Tampa,FL,33604,Hillsborough
Tampa,Tampa,FL,33620,Hillsborough
Tampa,Tampa,FL,33609,Hillsborough
Tampa,Tampa,FL,33613,Hillsborough
Tampa,Tampa,FL,33611,Hillsborough
Tampa,Tampa,FL,33619,Hillsborough
Tampa,Tampa,FL,33601,Hillsborough
Tampa,Tampa,FL,33614,Hillsborough
Tampa,Tampa,FL,33603,Hillsborough
Tampa,Tampa,FL,33622,Hillsborough
Tampa,Tampa,FL,33618,Hillsborough
Tampa,Tampa,FL,33624,Hillsborough
Tampa,Tampa,FL,33617,Hillsborough
Tampa,Tampa,FL,33615,Hillsborough
Tampa,Tampa,FL,33616,Hillsborough
Tampa,Tampa,FL,33647,Hillsborough
Tampa,Tampa,FL,33623,Hillsborough
Tampa,Tampa,FL,33634,Hillsborough
Tampa,Tampa,FL,33625,Hillsborough
Tampa,Tampa,FL,33637,Hillsborough
Tampa,Tampa,FL,33626,Hillsborough
Tampa,Tampa,FL,33675,Hillsborough
Tampa,Tampa,FL,33635,Hillsborough
Tampa,Tampa,FL,33662,Hillsborough
Tampa,Tampa,FL,33682,Hillsborough
Tampa,Tampa,FL,33655,Hillsborough
Tampa,Tampa,FL,33674,Hillsborough
Tampa,Tampa,FL,33608,Hillsborough
Tampa,Tampa,FL,33694,Hillsborough
Tampa,Tampa,FL,33681,Hillsborough
Tampa,Tampa,FL,33549,Hillsborough
Tampa,Temple Terrace,FL,33617,Hillsborough
Tampa,Temple Terrace,FL,33637,Hillsborough
Tampa,Thonotosassa,FL,33592,Hillsborough
Tampa,Valrico,FL,33594,Hillsborough
Tampa,Valrico,FL,33596,Hillsborough
Tampa,Wesley Chapel,FL,33534,Hillsborough
Tampa,West Melbourne,FL,33629,Hillsborough
Tampa,Ybor City,FL,33605,Hillsborough
Tampa,Lady Lake,FL,32162,Lake
Tampa,Bradenton,FL,34205,Manatee
Tampa,Bradenton,FL,34208,Manatee
Tampa,Bradenton,FL,34207,Manatee
Tampa,Bradenton,FL,34209,Manatee
Tampa,Bradenton,FL,34210,Manatee
Tampa,Bradenton,FL,34203,Manatee
Tampa,Bradenton,FL,34212,Manatee
Tampa,Bradenton,FL,34236,Manatee
Tampa,Bradenton,FL,34215,Manatee
Tampa,Bradenton,FL,34202,Manatee
Tampa,Bradenton,FL,34233,Manatee
Tampa,Bradenton,FL,34206,Manatee
Tampa,Bradenton,FL,34217,Manatee
Tampa,Bradenton,FL,34211,Manatee
Tampa,Lakewood Ranch,FL,34202,Manatee
Tampa,Lakewood Ranch,FL,34211,Manatee
Tampa,Lakewood Ranch,FL,34203,Manatee
Tampa,Long Boat Key,FL,34228,Manatee
Tampa,Longboat Key,FL,34228,Manatee
Tampa,Palmetto,FL,34221,Manatee
Tampa,Palmetto,FL,34220,Manatee
Tampa,Palmetto,FL,34205,Manatee
Tampa,Parrish,FL,34219,Manatee
Tampa,Sarasota,FL,34243,Manatee
Tampa,Sarasota,FL,34236,Manatee
Tampa,Sarasota,FL,34209,Manatee
Tampa,West Bradenton,FL,34205,Manatee
Tampa,Osprey,FL,34229,Orange
Tampa,Jupiter,FL,33548,Palm Beach
Tampa,Bayonet Point,FL,34667,Pasco
Tampa,Cypress Creek,FL,33544,Pasco
Tampa,Dade City,FL,33523,Pasco
Tampa,Dade City,FL,33525,Pasco
Tampa,Holiday,FL,34691,Pasco
Tampa,Holiday,FL,34690,Pasco
Tampa,Holiday,FL,34692,Pasco
Tampa,Holiday,FL,43691,Pasco
Tampa,Hudson,FL,34667,Pasco
Tampa,Hudson,FL,34669,Pasco
Tampa,Land O Lakes,FL,34639,Pasco
Tampa,Land O Lakes,FL,34638,Pasco
Tampa,Land O' Lakes,FL,34638,Pasco
Tampa,Land O' Lakes,FL,34637,Pasco
Tampa,Land O' Lakes,FL,34639,Pasco
Tampa,Land O'Lakes,FL,34638,Pasco
Tampa,New Port Richey,FL,34652,Pasco
Tampa,New Port Richey,FL,34654,Pasco
Tampa,New Port Richey,FL,34653,Pasco
Tampa,New Port Richey,FL,34655,Pasco
Tampa,New Port Richy,FL,34652,Pasco
Tampa,Port Richey,FL,34668,Pasco
Tampa,Port Richey,FL,34688,Pasco
Tampa,Saint Leo,FL,33574,Pasco
Tampa,San Antonio,FL,33576,Pasco
Tampa,Spring Hill,FL,34610,Pasco
Tampa,St Leo,FL,33574,Pasco
Tampa,St. Leo,FL,33574,Pasco
Tampa,Trinity,FL,34655,Pasco
Tampa,Wesley Chapel,FL,33543,Pasco
Tampa,Wesley Chapel,FL,33544,Pasco
Tampa,Wesley Chapel,FL,33554,Pasco
Tampa,Wesley Chapel,FL,33545,Pasco
Tampa,Zephryhills,FL,33542,Pasco
Tampa,Zephyrhills,FL,33541,Pasco
Tampa,Zephyrhills,FL,33542,Pasco
Tampa,Zephyrhills,FL,33540,Pasco
Tampa,Belleair,FL,33756,Pinellas
Tampa,Belleair Bch,FL,33786,Pinellas
Tampa,Belleair Beach,FL,33786,Pinellas
Tampa,Belleair Bluffs,FL,33770,Pinellas
Tampa,Clearwater,FL,33755,Pinellas
Tampa,Clearwater,FL,33756,Pinellas
Tampa,Clearwater,FL,33763,Pinellas
Tampa,Clearwater,FL,33767,Pinellas
Tampa,Clearwater,FL,33764,Pinellas
Tampa,Clearwater,FL,33765,Pinellas
Tampa,Clearwater,FL,33760,Pinellas
Tampa,Clearwater,FL,33759,Pinellas
Tampa,Clearwater,FL,33761,Pinellas
Tampa,Clearwater,FL,33762,Pinellas
Tampa,Clearwater,FL,33758,Pinellas
Tampa,Clearwater Bch,FL,33767,Pinellas
Tampa,Clearwater Beach,FL,33767,Pinellas
Tampa,Dunedin,FL,34698,Pinellas
Tampa,Dunedin,FL,34697,Pinellas
Tampa,Dunedin,FL,34683,Pinellas
Tampa,Dunedin,FL,34689,Pinellas
Tampa,Dunedin Bch,FL,34698,Pinellas
Tampa,Gulf Port,FL,33707,Pinellas
Tampa,Gulfport,FL,33707,Pinellas
Tampa,Indian Rocks Bch,FL,33785,Pinellas
Tampa,Indian Rocks Beach,FL,33785,Pinellas
Tampa,Indian Shores,FL,33785,Pinellas
Tampa,Kenneth City,FL,33709,Pinellas
Tampa,Largo,FL,33774,Pinellas
Tampa,Largo,FL,33770,Pinellas
Tampa,Largo,FL,33771,Pinellas
Tampa,Largo,FL,33777,Pinellas
Tampa,Largo,FL,33778,Pinellas
Tampa,Largo,FL,33773,Pinellas
Tampa,Largo,FL,33764,Pinellas
Tampa,Largo,FL,33779,Pinellas
Tampa,Largo,FL,33756,Pinellas
Tampa,Largo,FL,33772,Pinellas
Tampa,Largo,FL,33733,Pinellas
Tampa,Largo,FL,33701,Pinellas
Tampa,Largo,FL,33776,Pinellas
Tampa,Largo,FL,33711,Pinellas
Tampa,Madeira Bch,FL,33708,Pinellas
Tampa,Madeira Beach,FL,33708,Pinellas
Tampa,Madeiria Beach,FL,33708,Pinellas
Tampa,Maderia Bch,FL,33708,Pinellas
Tampa,Madiera Bch,FL,33708,Pinellas
Tampa,N Reddington Bch,FL,33708,Pinellas
Tampa,N Redington Bch,FL,33708,Pinellas
Tampa,N Seminole,FL,33772,Pinellas
Tampa,New Port Richey,FL,34652,Pinellas
Tampa,North Redington Bch,FL,33708,Pinellas
Tampa,North Redington Beac,FL,33708,Pinellas
Tampa,Oldsmar,FL,34677,Pinellas
Tampa,Palm Harbor,FL,34684,Pinellas
Tampa,Palm Harbor,FL,34683,Pinellas
Tampa,Palm Harbor,FL,34685,Pinellas
Tampa,Palm Harbor,FL,34694,Pinellas
Tampa,Palm Harbour,FL,34685,Pinellas
Tampa,Palm Harbour,FL,34683,Pinellas
Tampa,Pass A Grille Beach,FL,33706,Pinellas
Tampa,Pinellas Park,FL,33781,Pinellas
Tampa,Pinellas Park,FL,33782,Pinellas
Tampa,Pinellas Park,FL,33762,Pinellas
Tampa,Pinellas Park,FL,33716,Pinellas
Tampa,Pinellas Park,FL,33780,Pinellas
Tampa,Pinellas Park,FL,33773,Pinellas
Tampa,Pinellas Park,FL,33733,Pinellas
Tampa,Redington Bch,FL,33708,Pinellas
Tampa,Redington Beach,FL,33708,Pinellas
Tampa,Redington Beach,FL,33798,Pinellas
Tampa,Redington Shores,FL,33708,Pinellas
Tampa,S Pasadena,FL,33707,Pinellas
Tampa,Safety Harbor,FL,34695,Pinellas
Tampa,Saint Leo,FL,33574,Pinellas
Tampa,Saint Petersburg,FL,33716,Pinellas
Tampa,Saint Petersburg Bch,FL,33709,Pinellas
Tampa,Sand Key,FL,33767,Pinellas
Tampa,Seminole,FL,33772,Pinellas
Tampa,Seminole,FL,33777,Pinellas
Tampa,Seminole,FL,33776,Pinellas
Tampa,Seminole,FL,33778,Pinellas
Tampa,South Pasadena,FL,33707,Pinellas
Tampa,St Leo,FL,33756,Pinellas
Tampa,St Pete Bch,FL,33706,Pinellas
Tampa,St Pete Beach,FL,33706,Pinellas
Tampa,St Peterburg,FL,33706,Pinellas
Tampa,St Peters Bch,FL,33706,Pinellas
Tampa,St Petersburg,FL,33709,Pinellas
Tampa,St Petersburg,FL,33714,Pinellas
Tampa,St Petersburg,FL,33702,Pinellas
Tampa,St Petersburg,FL,33707,Pinellas
Tampa,St Petersburg,FL,33708,Pinellas
Tampa,St Petersburg,FL,33713,Pinellas
Tampa,St Petersburg,FL,33712,Pinellas
Tampa,St Petersburg,FL,33711,Pinellas
Tampa,St Petersburg,FL,33705,Pinellas
Tampa,St Petersburg,FL,33701,Pinellas
Tampa,St Petersburg,FL,33715,Pinellas
Tampa,St Petersburg,FL,33704,Pinellas
Tampa,St Petersburg,FL,33710,Pinellas
Tampa,St Petersburg,FL,33716,Pinellas
Tampa,St Petersburg,FL,33706,Pinellas
Tampa,St Petersburg,FL,33733,Pinellas
Tampa,St Petersburg Bch,FL,33706,Pinellas
Tampa,St Petersburg Bch,FL,33708,Pinellas
Tampa,St. Petersburg,FL,33707,Pinellas
Tampa,St. Petersburg,FL,33701,Pinellas
Tampa,St. Petersburg,FL,33708,Pinellas
Tampa,St. Petersburg,FL,33702,Pinellas
Tampa,St. Petersburg,FL,33709,Pinellas
Tampa,St. Petersburg,FL,33710,Pinellas
Tampa,St. Petersburg,FL,33705,Pinellas
Tampa,St. Petersburg,FL,33713,Pinellas
Tampa,St. Petersburg,FL,33704,Pinellas
Tampa,St. Petersburg,FL,33706,Pinellas
Tampa,St. Petersburg,FL,33711,Pinellas
Tampa,St. Petersburg,FL,33714,Pinellas
Tampa,St. Petersburg,FL,33715,Pinellas
Tampa,St. Petersburg,FL,33716,Pinellas
Tampa,St. Petersburg,FL,33731,Pinellas
Tampa,St. Petersburg,FL,33712,Pinellas
Tampa,St. Petersburg,FL,33733,Pinellas
Tampa,St.Pete Beach,FL,33706,Pinellas
Tampa,St.Pete Beach,FL,33707,Pinellas
Tampa,Tarpon Spgs,FL,34689,Pinellas
Tampa,Tarpon Spgs,FL,34688,Pinellas
Tampa,Tarpon Springs,FL,34689,Pinellas
Tampa,Tarpon Springs,FL,34688,Pinellas
Tampa,Tarpon Springs,FL,34691,Pinellas
Tampa,Terra Verde,FL,33715,Pinellas
Tampa,Tierra Verde,FL,33715,Pinellas
Tampa,Treasure Island,FL,33706,Pinellas
Tampa,Treasure Island,FL,33740,Pinellas
Tampa,Treasure Isle,FL,33706,Pinellas
Tampa,Lakeland,FL,33801,Polk
Tampa,Lakeland,FL,33803,Polk
Tampa,Lakeland,FL,33805,Polk
Tampa,Lakeland,FL,33815,Polk
Tampa,Lakeland,FL,33810,Polk
Tampa,Lakeland,FL,33809,Polk
Tampa,Lakeland,FL,33811,Polk
Tampa,Lakeland,FL,33813,Polk
Tampa,Lakeland,FL,33804,Polk
Tampa,Lakeland,FL,33812,Polk
Tampa,Bradenton,FL,34207,Sarasota
Tampa,Englewod Bch,FL,34223,Sarasota
Tampa,Englewood,FL,34223,Sarasota
Tampa,Englewood,FL,34224,Sarasota
Tampa,Englewood Bch,FL,34223,Sarasota
Tampa,Englewood Bch,FL,34221,Sarasota
Tampa,Lakewood Ranch,FL,34240,Sarasota
Tampa,Lido Bch,FL,34236,Sarasota
Tampa,Lido Beach,FL,34236,Sarasota
Tampa,Long Boat Key,FL,34228,Sarasota
Tampa,Longboat Key,FL,34228,Sarasota
Tampa,Nokomis,FL,34275,Sarasota
Tampa,Nokomis,FL,34274,Sarasota
Tampa,North Port,FL,34287,Sarasota
Tampa,North Port,FL,34286,Sarasota
Tampa,North Port,FL,39287,Sarasota
Tampa,North Port,FL,34289,Sarasota
Tampa,North Port,FL,34293,Sarasota
Tampa,North Port,FL,34239,Sarasota
Tampa,Northport,FL,34287,Sarasota
Tampa,Osprey,FL,34229,Sarasota
Tampa,Sarasota,FL,34236,Sarasota
Tampa,Sarasota,FL,34239,Sarasota
Tampa,Sarasota,FL,34237,Sarasota
Tampa,Sarasota,FL,34242,Sarasota
Tampa,Sarasota,FL,34233,Sarasota
Tampa,Sarasota,FL,34231,Sarasota
Tampa,Sarasota,FL,34232,Sarasota
Tampa,Sarasota,FL,34238,Sarasota
Tampa,Sarasota,FL,34234,Sarasota
Tampa,Sarasota,FL,34235,Sarasota
Tampa,Sarasota,FL,34240,Sarasota
Tampa,Sarasota,FL,34241,Sarasota
Tampa,Sarasota,FL,34230,Sarasota
Tampa,Sarasota,FL,34276,Sarasota
Tampa,Sarasota,FL,34340,Sarasota
Tampa,Sarasota,FL,34211,Sarasota
Tampa,Saraspta,FL,34243,Sarasota
Tampa,Sarsota,FL,34238,Sarasota
Tampa,Siesta Key,FL,34242,Sarasota
Tampa,Town Of Longboat,FL,34228,Sarasota
Tampa,Venice,FL,34285,Sarasota
Tampa,Venice,FL,34293,Sarasota
Tampa,Venice,FL,33595,Sarasota
Tampa,Venice,FL,34292,Sarasota
Tampa,Venice,FL,34287,Sarasota
Tampa,Venice,FL,34284,Sarasota
Tampa,Venice,FL,34275,Sarasota
Tampa,Venice,FL,34232,Sarasota
Tampa,Venice Island,FL,34285,Sarasota
Tampa,Fort Pierce,FL,34945,St. Lucie
Tampa,Bushnell,FL,33513,Sumter
Tampa,Lady Lake,FL,32162,Sumter
Tampa,Sumterville,FL,33585,Sumter
Tampa,The Villages,FL,32162,Sumter
Tampa,The Villages,FL,32163,Sumter
Tampa,Webster,FL,33597,Sumter
Tampa,Wildwood,FL,34785,Sumter
